[{"OBJECT_NAME":"STARLINK-30100","OBJECT_ID":"2023-119X","EPOCH":"2026-03-09T22:00:01.999584","MEAN_MOTION":15.17573098,"ECCENTRICITY":0.00019511,"INCLINATION":43.0003,"RA_OF_ASC_NODE":79.9179,"ARG_OF_PERICENTER":284.7245,"MEAN_ANOMALY":141.6693,"EPHEMERIS_TYPE":0,"CLASSIFICATION_TYPE":"U","NORAD_CAT_ID":57623,"ELEMENT_SET_NO":999,"REV_AT_EPOCH":573,"BSTAR":0.052332137,"MEAN_MOTION_DOT":0.01165297,"MEAN_MOTION_DDOT":0},{"OBJECT_NAME":"COSMOS 1174 DEB","OBJECT_ID":"1980-030Y","EPOCH":"2026-03-09T13:55:47.203680","MEAN_MOTION":14.93245018,"ECCENTRICITY":0.0309747,"INCLINATION":66.0991,"RA_OF_ASC_NODE":136.4359,"ARG_OF_PERICENTER":294.7315,"MEAN_ANOMALY":62.1863,"EPHEMERIS_TYPE":0,"CLASSIFICATION_TYPE":"U","NORAD_CAT_ID":12354,"ELEMENT_SET_NO":999,"REV_AT_EPOCH":38214,"BSTAR":0.00037697,"MEAN_MOTION_DOT":0.00010173,"MEAN_MOTION_DDOT":0}]
